[{"OBJECT_NAME":"PHISAT 2","OBJECT_ID":"2024-149C","EPOCH":"2026-03-09T18:55:12.732384","MEAN_MOTION":15.29548632,"ECCENTRICITY":0.00011753,"INCLINATION":97.3806,"RA_OF_ASC_NODE":148.6498,"ARG_OF_PERICENTER":168.623,"MEAN_ANOMALY":191.5037,"EPHEMERIS_TYPE":0,"CLASSIFICATION_TYPE":"U","NORAD_CAT_ID":60470,"ELEMENT_SET_NO":999,"REV_AT_EPOCH":8679,"BSTAR":0.00031420974,"MEAN_MOTION_DOT":8.925e-5,"MEAN_MOTION_DDOT":0},{"OBJECT_NAME":"STARLINK-35662","OBJECT_ID":"2025-257E","EPOCH":"2026-03-09T16:05:35.593440","MEAN_MOTION":15.30200777,"ECCENTRICITY":0.00010982,"INCLINATION":53.1611,"RA_OF_ASC_NODE":216.8957,"ARG_OF_PERICENTER":77.3305,"MEAN_ANOMALY":282.7818,"EPHEMERIS_TYPE":0,"CLASSIFICATION_TYPE":"U","NORAD_CAT_ID":66384,"ELEMENT_SET_NO":999,"REV_AT_EPOCH":1973,"BSTAR":0.0010754051,"MEAN_MOTION_DOT":0.00031628,"MEAN_MOTION_DDOT":0}]
