PHISAT 2                
1 60470U 24149C   26068.78834181  .00008925  00000+0  31421-3 0  9996
2 60470  97.3806 148.6498 0001175 168.6230 191.5037 15.29548631 86792
STARLINK-35662          
1 66384U 25257E   26068.67055085  .00031628  00000+0  10754-2 0  9994
2 66384  53.1611 216.8957 0001098  77.3305 282.7818 15.30200777 19735
